H1 CPF 01  gfz 2022 07 18 00  6991 tandemx   
H2 1003001  6202 36605    2022 07 18 00 59 42 2022 07 23 00 00 42   120 1 1  0 0 0
H9
10 0 59782  55422.000000  0   -5166872.634  -3833489.540  -2472397.931
10 0 59782  55542.000000  0   -4968409.971  -3463075.427  -3291987.235
10 0 59782  55662.000000  0   -4676425.879  -3036625.955  -4053823.397
10 0 59782  55782.000000  0   -4295193.308  -2563226.189  -4744616.965
10 0 59782  55902.000000  0   -3830691.959  -2052672.441  -5352352.050
10 0 59782  56022.000000  0   -3290506.018  -1515268.309  -5866487.902
10 0 59782  56142.000000  0   -2683693.074   -961616.218  -6278131.804
10 0 59782  56262.000000  0   -2020626.839   -402409.270  -6580181.773
10 0 59782  56382.000000  0   -1312816.439    151772.376  -6767437.128
10 0 59782  56502.000000  0    -572708.022    690656.555  -6836677.069
10 0 59782  56622.000000  0     186529.591   1204464.481  -6786710.210
10 0 59782  56742.000000  0     951232.613   1684083.019  -6618392.827
10 0 59782  56862.000000  0    1707482.496   2121222.803  -6334618.299
10 0 59782  56982.000000  0    2441354.281   2508559.948  -5940272.499
10 0 59782  57102.000000  0    3139169.407   2839858.608  -5442158.042
10 0 59782  57222.000000  0    3787747.678   3110072.154  -4848887.489
10 0 59782  57342.000000  0    4374657.748   3315423.253  -4170746.961
10 0 59782  57462.000000  0    4888460.184   3453459.426  -3419527.828
10 0 59782  57582.000000  0    5318936.525   3523082.385  -2608328.946
10 0 59782  57702.000000  0    5657299.781   3524551.729  -1751333.387
10 0 59782  57822.000000  0    5896381.997   3459460.618   -863560.800
10 0 59782  57942.000000  0    6030791.982   3330683.531     39398.615
10 0 59782  58062.000000  0    6057040.373   3142297.451    941663.553
10 0 59782  58182.000000  0    5973627.161   2899477.742   1827348.999
10 0 59782  58302.000000  0    5781088.569   2608372.504   2680854.381
10 0 59782  58422.000000  0    5482003.730   2275957.472   3487147.453
10 0 59782  58542.000000  0    5080958.493   1909874.725   4232036.383
10 0 59782  58662.000000  0    4584468.337   1518260.609   4902423.301
10 0 59782  58782.000000  0    4000865.938   1109566.778   5486534.230
10 0 59782  58902.000000  0    3340152.847    692379.000   5974126.325
10 0 59782  59022.000000  0    2613817.821    275237.464   6356661.833
10 0 59782  59142.000000  0    1834631.748   -133535.877   6627450.242
10 0 59782  59262.000000  0    1016420.119   -526001.697   6781760.494
10 0 59782  59382.000000  0     173814.721   -894756.770   6816899.607
10 0 59782  59502.000000  0    -678008.921  -1233072.742   6732255.647
10 0 59782  59622.000000  0   -1523604.285  -1535018.897   6529306.968
10 0 59782  59742.000000  0   -2347532.482  -1795565.947   6211596.633
10 0 59782  59862.000000  0   -3134641.993  -2010669.143   5784675.339
10 0 59782  59982.000000  0   -3870349.997  -2177332.219   5256013.043
10 0 59782  60102.000000  0   -4540918.071  -2293649.744   4634873.415
10 0 59782  60222.000000  0   -5133714.961  -2358826.010   3932155.711
10 0 59782  60342.000000  0   -5637461.454  -2373169.524   3160206.345
10 0 59782  60462.000000  0   -6042452.957  -2338064.169   2332603.932
10 0 59782  60582.000000  0   -6340755.865  -2255918.597   1463919.800
10 0 59782  60702.000000  0   -6526371.383  -2130093.158    569455.157
10 0 59782  60822.000000  0   -6595359.408  -1964805.558   -335036.037
10 0 59782  60942.000000  0   -6545923.031  -1765018.424  -1233633.533
10 0 59782  61062.000000  0   -6378448.178  -1536311.734  -2110540.463
10 0 59782  61182.000000  0   -6095499.097  -1284743.835  -2950368.309
10 0 59782  61302.000000  0   -5701770.625  -1016704.664  -3738411.631
10 0 59782  61422.000000  0   -5203999.275   -738764.515  -4460907.163
10 0 59782  61542.000000  0   -4610835.715   -457522.017  -5105272.160
10 0 59782  61662.000000  0   -3932682.026   -179455.704  -5660317.798
10 0 59782  61782.000000  0   -3181498.226     89217.717  -6116434.157
10 0 59782  61902.000000  0   -2370584.079    342675.515  -6465744.415
10 0 59782  62022.000000  0   -1514340.813    575608.325  -6702229.217
10 0 59782  62142.000000  0    -628015.765    783325.407  -6821819.938
10 0 59782  62262.000000  0     272564.513    961845.356  -6822459.863
10 0 59782  62382.000000  0    1171268.710   1107969.118  -6704135.867
10 0 59782  62502.000000  0    2051943.293   1219335.839  -6468881.336
10 0 59782  62622.000000  0    2898697.311   1294460.987  -6120744.961
10 0 59782  62742.000000  0    3696184.940   1332755.132  -5665727.465
10 0 59782  62862.000000  0    4429880.564   1334523.313  -5111688.097
10 0 59782  62982.000000  0    5086345.530   1300945.489  -4468221.250
10 0 59782  63102.000000  0    5653480.416   1234038.047  -3746500.761
10 0 59782  63222.000000  0    6120756.427   1136596.473  -2959094.927
10 0 59782  63342.000000  0    6479422.097   1012120.242  -2119754.664
10 0 59782  63462.000000  0    6722680.399    864721.725  -1243175.903
10 0 59782  63582.000000  0    6845829.364    699020.146   -344740.227
10 0 59782  63702.000000  0    6846361.765    520023.705    559760.012
10 0 59782  63822.000000  0    6724022.464    333003.249   1454405.726
10 0 59782  63942.000000  0    6480821.529    143358.799   2323440.278
10 0 59782  64062.000000  0    6120999.755    -43515.837   3151556.658
10 0 59782  64182.000000  0    5650949.456   -222368.092   3924174.588
10 0 59782  64302.000000  0    5079092.322   -388216.024   4627701.516
10 0 59782  64422.000000  0    4415720.243   -536470.538   5249774.783
10 0 59782  64542.000000  0    3672798.333   -663047.357   5779478.328
10 0 59782  64662.000000  0    2863739.781   -764464.695   6207529.853
10 0 59782  64782.000000  0    2003156.483   -837926.249   6526438.162
10 0 59782  64902.000000  0    1106590.736   -881387.560   6730629.085
10 0 59782  65022.000000  0     190230.499   -893604.651   6816537.789
10 0 59782  65142.000000  0    -729383.935   -874163.604   6782665.772
10 0 59782  65262.000000  0   -1635657.466   -823491.409   6629604.483
10 0 59782  65382.000000  0   -2512238.149   -742846.939   6360025.216
10 0 59782  65502.000000  0   -3343310.907   -634292.703   5978636.038
10 0 59782  65622.000000  0   -4113884.686   -500647.657   5492106.026
10 0 59782  65742.000000  0   -4810068.032   -345422.474   4908955.259
10 0 59782  65862.000000  0   -5419326.729   -172737.754   4239410.697
10 0 59782  65982.000000  0   -5930718.040     12773.047   3495230.447
10 0 59782  66102.000000  0   -6335096.189    206074.234   2689499.533
10 0 59782  66222.000000  0   -6625286.461    401849.972   1836399.880
10 0 59782  66342.000000  0   -6796221.875    594634.522    950956.827
10 0 59782  66462.000000  0   -6845038.624    778947.072     48767.659
10 0 59782  66582.000000  0   -6771126.907    949428.459   -854282.161
10 0 59782  66702.000000  0   -6576135.053   1100975.775  -1742307.931
10 0 59782  66822.000000  0   -6263929.152   1228871.098  -2599711.953
10 0 59782  66942.000000  0   -5840510.460   1328902.826  -3411464.820
10 0 59782  67062.000000  0   -5313887.462   1397474.288  -4163373.469
10 0 59782  67182.000000  0   -4693911.212   1431697.797  -4842327.999
10 0 59782  67302.000000  0   -3992078.606   1429472.516  -5436525.286
10 0 59782  67422.000000  0   -3221308.945   1389544.432  -5935665.246
10 0 59782  67542.000000  0   -2395699.539   1311547.095  -6331119.008
10 0 59782  67662.000000  0   -1530264.321   1196023.304  -6616066.977
10 0 59782  67782.000000  0    -640660.389   1044427.736  -6785604.441
10 0 59782  67902.000000  0     257090.580    859109.741  -6836815.711
10 0 59782  68022.000000  0    1146882.718    643277.945  -6768819.311
10 0 59782  68142.000000  0    2012808.817    400945.742  -6582783.782
10 0 59782  68262.000000  0    2839438.721    136858.774  -6281909.108
10 0 59782  68382.000000  0    3612089.848   -143593.957  -5871377.806
10 0 59782  68502.000000  0    4317085.260   -434485.469  -5358273.655
10 0 59782  68622.000000  0    4941996.480   -729469.949  -4751471.591
10 0 59782  68742.000000  0    5475869.111  -1021914.920  -4061495.965
10 0 59782  68862.000000  0    5909423.553  -1305043.319  -3300347.658
10 0 59782  68982.000000  0    6235227.314  -1572083.125  -2481302.944
10 0 59782  69102.000000  0    6447834.792  -1816421.358  -1618686.198
10 0 59782  69222.000000  0    6543889.965  -2031758.521   -727619.613
10 0 59782  69342.000000  0    6522188.969  -2212259.351    176244.854
10 0 59782  69462.000000  0    6383700.522  -2352696.720   1077006.715
10 0 59782  69582.000000  0    6131542.272  -2448583.813   1958805.368
10 0 59782  69702.000000  0    5770913.149  -2496292.110   2806108.601
10 0 59782  69822.000000  0    5308984.093  -2493151.214   3603994.853
10 0 59782  69942.000000  0    4754748.499  -2437527.850   4338422.015
10 0 59782  70062.000000  0    4118840.085  -2328882.524   4996476.692
10 0 59782  70182.000000  0    3413321.598  -2167803.789   5566603.217
10 0 59782  70302.000000  0    2651446.166  -1956017.994   6038804.702
10 0 59782  70422.000000  0    1847401.474  -1696374.522   6404812.968
10 0 59782  70542.000000  0    1016040.761  -1392808.313   6658227.570
10 0 59782  70662.000000  0     172605.217  -1050279.544   6794621.950
10 0 59782  70782.000000  0    -667556.326   -674691.343   6811615.247
10 0 59782  70902.000000  0   -1489265.637   -272787.819   6708910.456
10 0 59782  71022.000000  0   -2277788.007    147966.726   6488299.277
10 0 59782  71142.000000  0   -3019095.609    579525.772   6153633.283
10 0 59782  71262.000000  0   -3700117.987   1013413.262   5710761.551
10 0 59782  71382.000000  0   -4308976.288   1440888.563   5167434.890
10 0 59782  71502.000000  0   -4835196.627   1853121.325   4533176.132
10 0 59782  71622.000000  0   -5269897.790   2241373.452   3819117.807
10 0 59782  71742.000000  0   -5605948.888   2597183.448   3037809.373
10 0 59782  71862.000000  0   -5838093.861   2912549.410   2202997.677
99
